{"type": "FeatureCollection", "features": [ {"type": "Feature", "properties": {"norad_id": 28659, "name": "DIRECTV 8", "group": "intelsat", "lat": -0.034036751768854824, "lon": -155.00399711818375, "alt_km": 35781.60274743769, "timestamp": "2025-12-17T15:50:09.444516+00:00", "meta": {"OBJECT_NAME": "DIRECTV 8", "OBJECT_ID": "2005-019A", "EPOCH": "2025-12-17T07:56:53.483712", "MEAN_MOTION": 1.00272909, "ECCENTRICITY": 0.00028656, "INCLINATION": 0.018, "RA_OF_ASC_NODE": 326.4689, "ARG_OF_PERICENTER": 308.6479, "MEAN_ANOMALY": 171.2805, "EPHEMERIS_TYPE": 0, "CLASSIFICATION_TYPE": "U", "NORAD_CAT_ID": 28659, "ELEMENT_SET_NO": 999, "REV_AT_EPOCH": 7525, "BSTAR": 0, "MEAN_MOTION_DOT": 2.6e-07, "MEAN_MOTION_DDOT": 0}, "tle": {"line1": "1 28659U 05019A   25351.33117458  .00000026  00000+0  00000+0 0  9999", "line2": "2 28659   0.0180 326.4689 0002865 308.6479 171.2805  1.00272909 75250"}}, "geometry": {"type": "Point", "coordinates": [-155.00399711818375, -0.034036751768854824]}}, {"type": "Feature", "properties": {"norad_id": 28702, "name": "GALAXY 28 (G-28)", "group": "intelsat", "lat": 1.2114470566146318, "lon": -124.62651547191896, "alt_km": 35776.38714901797, "timestamp": "2025-12-17T15:50:09.444529+00:00", "meta": {"OBJECT_NAME": "GALAXY 28 (G-28)", "OBJECT_ID": "2005-022A", "EPOCH": "2025-12-17T06:03:38.655936", "MEAN_MOTION": 1.00270854, "ECCENTRICITY": 0.0002891, "INCLINATION": 2.8309, "RA_OF_ASC_NODE": 81.2305, "ARG_OF_PERICENTER": 190.8852, "MEAN_ANOMALY": 176.2288, "EPHEMERIS_TYPE": 0, "CLASSIFICATION_TYPE": "U", "NORAD_CAT_ID": 28702, "ELEMENT_SET_NO": 999, "REV_AT_EPOCH": 5015, "BSTAR": 0, "MEAN_MOTION_DOT": -1.65e-06, "MEAN_MOTION_DDOT": 0}, "tle": {"line1": "1 28702U 05022A   25351.25253074 -.00000165  00000+0  00000+0 0  9993", "line2": "2 28702   2.8309  81.2305 0002891 190.8852 176.2288  1.00270854 50157"}}, "geometry": {"type": "Point", "coordinates": [-124.62651547191896, 1.2114470566146318]}}, {"type": "Feature", "properties": {"norad_id": 29236, "name": "GALAXY 16 (G-16)", "group": "intelsat", "lat": -0.01762096344377128, "lon": -134.9542884031782, "alt_km": 35777.601392439676, "timestamp": "2025-12-17T15:50:09.444541+00:00", "meta": {"OBJECT_NAME": "GALAXY 16 (G-16)", "OBJECT_ID": "2006-023A", "EPOCH": "2025-12-17T06:14:51.385344", "MEAN_MOTION": 1.00272272, "ECCENTRICITY": 0.0002452, "INCLINATION": 0.0332, "RA_OF_ASC_NODE": 219.7084, "ARG_OF_PERICENTER": 41.8008, "MEAN_ANOMALY": 179.3456, "EPHEMERIS_TYPE": 0, "CLASSIFICATION_TYPE": "U", "NORAD_CAT_ID": 29236, "ELEMENT_SET_NO": 999, "REV_AT_EPOCH": 7114, "BSTAR": 0, "MEAN_MOTION_DOT": -1.02e-06, "MEAN_MOTION_DDOT": 0}, "tle": {"line1": "1 29236U 06023A   25351.26031696 -.00000102  00000+0  00000+0 0  9994", "line2": "2 29236   0.0332 219.7084 0002452  41.8008 179.3456  1.00272272 71148"}}, "geometry": {"type": "Point", "coordinates": [-134.9542884031782, -0.01762096344377128]}}, {"type": "Feature", "properties": {"norad_id": 29494, "name": "DIRECTV 9S", "group": "intelsat", "lat": 1.241377155429689, "lon": -137.1544922630923, "alt_km": 35777.909442087395, "timestamp": "2025-12-17T15:50:09.444553+00:00", "meta": {"OBJECT_NAME": "DIRECTV 9S", "OBJECT_ID": "2006-043A", "EPOCH": "2025-12-17T06:51:09.005760", "MEAN_MOTION": 1.00271922, "ECCENTRICITY": 0.00028284, "INCLINATION": 1.9514, "RA_OF_ASC_NODE": 83.1644, "ARG_OF_PERICENTER": 188, "MEAN_ANOMALY": 176.5764, "EPHEMERIS_TYPE": 0, "CLASSIFICATION_TYPE": "U", "NORAD_CAT_ID": 29494, "ELEMENT_SET_NO": 999, "REV_AT_EPOCH": 4956, "BSTAR": 0, "MEAN_MOTION_DOT": -9e-07, "MEAN_MOTION_DDOT": 0}, "tle": {"line1": "1 29494U 06043A   25351.28552090 -.00000090  00000+0  00000+0 0  9996", "line2": "2 29494   1.9514  83.1644 0002828 188.0000 176.5764  1.00271922 49567"}}, "geometry": {"type": "Point", "coordinates": [-137.1544922630923, 1.241377155429689]}}, {"type": "Feature", "properties": {"norad_id": 31307, "name": "GALAXY 17 (G-17)", "group": "intelsat", "lat": 0.962373311097325, "lon": -120.90083328252986, "alt_km": 35762.93859003061, "timestamp": "2025-12-17T15:50:09.444565+00:00", "meta": {"OBJECT_NAME": "GALAXY 17 (G-17)", "OBJECT_ID": "2007-016B", "EPOCH": "2025-12-17T06:03:38.655936", "MEAN_MOTION": 1.00272012, "ECCENTRICITY": 0.00055326, "INCLINATION": 2.5111, "RA_OF_ASC_NODE": 82.2351, "ARG_OF_PERICENTER": 167.9961, "MEAN_ANOMALY": 201.838, "EPHEMERIS_TYPE": 0, "CLASSIFICATION_TYPE": "U", "NORAD_CAT_ID": 31307, "ELEMENT_SET_NO": 999, "REV_AT_EPOCH": 6798, "BSTAR": 0, "MEAN_MOTION_DOT": -1.84e-06, "MEAN_MOTION_DDOT": 0}, "tle": {"line1": "1 31307U 07016B   25351.25253074 -.00000184  00000+0  00000+0 0  9994", "line2": "2 31307   2.5111  82.2351 0005532 167.9961 201.8380  1.00272012 67988"}}, "geometry": {"type": "Point", "coordinates": [-120.90083328252986, 0.962373311097325]}}, {"type": "Feature", "properties": {"norad_id": 31862, "name": "DIRECTV 10", "group": "intelsat", "lat": 0.00988355774980751, "lon": -138.74255989349626, "alt_km": 35785.243018552945, "timestamp": "2025-12-17T15:50:09.444576+00:00", "meta": {"OBJECT_NAME": "DIRECTV 10", "OBJECT_ID": "2007-032A", "EPOCH": "2025-12-17T07:02:53.517408", "MEAN_MOTION": 1.00269426, "ECCENTRICITY": 3.669e-05, "INCLINATION": 0.0146, "RA_OF_ASC_NODE": 159.5204, "ARG_OF_PERICENTER": 48.9964, "MEAN_ANOMALY": 240.5776, "EPHEMERIS_TYPE": 0, "CLASSIFICATION_TYPE": "U", "NORAD_CAT_ID": 31862, "ELEMENT_SET_NO": 999, "REV_AT_EPOCH": 4376, "BSTAR": 0, "MEAN_MOTION_DOT": -7.8e-07, "MEAN_MOTION_DDOT": 0}, "tle": {"line1": "1 31862U 07032A   25351.29367497 -.00000078  00000+0  00000+0 0  9999", "line2": "2 31862   0.0146 159.5204 0000366  48.9964 240.5776  1.00269426 43765"}}, "geometry": {"type": "Point", "coordinates": [-138.74255989349626, 0.00988355774980751]}}, {"type": "Feature", "properties": {"norad_id": 32253, "name": "INTELSAT 11 (IS-11)", "group": "intelsat", "lat": 3.0889610889536474, "lon": 167.99441626709879, "alt_km": 36125.47463078468, "timestamp": "2025-12-17T15:50:09.444587+00:00", "meta": {"OBJECT_NAME": "INTELSAT 11 (IS-11)", "OBJECT_ID": "2007-044B", "EPOCH": "2025-12-17T07:08:04.843392", "MEAN_MOTION": 0.99051025, "ECCENTRICITY": 0.00086065, "INCLINATION": 3.0916, "RA_OF_ASC_NODE": 80.9265, "ARG_OF_PERICENTER": 167.7417, "MEAN_ANOMALY": 150.1516, "EPHEMERIS_TYPE": 0, "CLASSIFICATION_TYPE": "U", "NORAD_CAT_ID": 32253, "ELEMENT_SET_NO": 999, "REV_AT_EPOCH": 6664, "BSTAR": 0, "MEAN_MOTION_DOT": 2.1e-07, "MEAN_MOTION_DDOT": 0}, "tle": {"line1": "1 32253U 07044B   25351.29727828  .00000021  00000+0  00000+0 0  9992", "line2": "2 32253   3.0916  80.9265 0008606 167.7417 150.1516  0.99051025 66641"}}, "geometry": {"type": "Point", "coordinates": [167.99441626709879, 3.0889610889536474]}}, {"type": "Feature", "properties": {"norad_id": 32388, "name": "HORIZONS-2", "group": "intelsat", "lat": 0.44107327411989133, "lon": -109.73542171931827, "alt_km": 35767.98817823392, "timestamp": "2025-12-17T15:50:09.444599+00:00", "meta": {"OBJECT_NAME": "HORIZONS-2", "OBJECT_ID": "2007-063B", "EPOCH": "2025-12-17T04:24:51.296256", "MEAN_MOTION": 1.00272984, "ECCENTRICITY": 0.00045758, "INCLINATION": 2.1326, "RA_OF_ASC_NODE": 82.9158, "ARG_OF_PERICENTER": 191.1459, "MEAN_ANOMALY": 164.4271, "EPHEMERIS_TYPE": 0, "CLASSIFICATION_TYPE": "U", "NORAD_CAT_ID": 32388, "ELEMENT_SET_NO": 999, "REV_AT_EPOCH": 6598, "BSTAR": 0, "MEAN_MOTION_DOT": -2.31e-06, "MEAN_MOTION_DDOT": 0}, "tle": {"line1": "1 32388U 07063B   25351.18392704 -.00000231  00000+0  00000+0 0  9995", "line2": "2 32388   2.1326  82.9158 0004575 191.1459 164.4271  1.00272984 65980"}}, "geometry": {"type": "Point", "coordinates": [-109.73542171931827, 0.44107327411989133]}}, {"type": "Feature", "properties": {"norad_id": 32729, "name": "DIRECTV 11", "group": "intelsat", "lat": -0.005780679861206833, "lon": -135.11948927603524, "alt_km": 35785.171739204816, "timestamp": "2025-12-17T15:50:09.444611+00:00", "meta": {"OBJECT_NAME": "DIRECTV 11", "OBJECT_ID": "2008-013A", "EPOCH": "2025-12-16T21:26:45.259296", "MEAN_MOTION": 1.00271167, "ECCENTRICITY": 5.224e-05, "INCLINATION": 0.0169, "RA_OF_ASC_NODE": 231.5018, "ARG_OF_PERICENTER": 293.6568, "MEAN_ANOMALY": 143.1244, "EPHEMERIS_TYPE": 0, "CLASSIFICATION_TYPE": "U", "NORAD_CAT_ID": 32729, "ELEMENT_SET_NO": 999, "REV_AT_EPOCH": 4376, "BSTAR": 0, "MEAN_MOTION_DOT": -1.01e-06, "MEAN_MOTION_DDOT": 0}, "tle": {"line1": "1 32729U 08013A   25350.89357939 -.00000101  00000+0  00000+0 0  9994", "line2": "2 32729   0.0169 231.5018 0000522 293.6568 143.1244  1.00271167 43763"}}, "geometry": {"type": "Point", "coordinates": [-135.11948927603524, -0.005780679861206833]}}, {"type": "Feature", "properties": {"norad_id": 32951, "name": "GALAXY 18 (G-18)", "group": "intelsat", "lat": -0.0013262291397549359, "lon": -158.96944686628612, "alt_km": 35782.09743268597, "timestamp": "2025-12-17T15:50:09.444623+00:00", "meta": {"OBJECT_NAME": "GALAXY 18 (G-18)", "OBJECT_ID": "2008-024A", "EPOCH": "2025-12-17T06:30:24.768000", "MEAN_MOTION": 1.00272901, "ECCENTRICITY": 0.00028344, "INCLINATION": 0.0052, "RA_OF_ASC_NODE": 80.5939, "ARG_OF_PERICENTER": 192.8645, "MEAN_ANOMALY": 147.2943, "EPHEMERIS_TYPE": 0, "CLASSIFICATION_TYPE": "U", "NORAD_CAT_ID": 32951, "ELEMENT_SET_NO": 999, "REV_AT_EPOCH": 4402, "BSTAR": 0, "MEAN_MOTION_DOT": 5e-07, "MEAN_MOTION_DDOT": 0}, "tle": {"line1": "1 32951U 08024A   25351.27112000  .00000050  00000+0  00000+0 0  9996", "line2": "2 32951   0.0052  80.5939 0002834 192.8645 147.2943  1.00272901 44027"}}, "geometry": {"type": "Point", "coordinates": [-158.96944686628612, -0.0013262291397549359]}}]}